{
    "links": {
        "self": "http://www.neowsapp.com/rest/v1/neo/54087659?api_key=iIulBulltgU6a56xZRHN4H3l9WmuAYTsLGpBGhQ2"
    },
    "id": "54087659",
    "neo_reference_id": "54087659",
    "name": "(2020 VX1)",
    "designation": "2020 VX1",
    "nasa_jpl_url": "http://ssd.jpl.nasa.gov/sbdb.cgi?sstr=54087659",
    "absolute_magnitude_h": 22.859,
    "estimated_diameter": {
        "kilometers": {
            "estimated_diameter_min": 0.0712450961,
            "estimated_diameter_max": 0.1593088779
        },
        "meters": {
            "estimated_diameter_min": 71.2450960994,
            "estimated_diameter_max": 159.3088779418
        },
        "miles": {
            "estimated_diameter_min": 0.0442696366,
            "estimated_diameter_max": 0.0989899168
        },
        "feet": {
            "estimated_diameter_min": 233.7437610868,
            "estimated_diameter_max": 522.6669391065
        }
    },
    "is_potentially_hazardous_asteroid": false,
    "close_approach_data": [
        {
            "close_approach_date": "2016-12-04",
            "close_approach_date_full": "2016-Dec-04 23:04",
            "epoch_date_close_approach": 1480892640000,
            "relative_velocity": {
                "kilometers_per_second": "15.4980300978",
                "kilometers_per_hour": "55792.9083519886",
                "miles_per_hour": "34667.543525712"
            },
            "miss_distance": {
                "astronomical": "0.2698788859",
                "lunar": "104.9828866151",
                "kilometers": "40373306.488613033",
                "miles": "25086809.3612165354"
            },
            "orbiting_body": "Earth"
        },
        {
            "close_approach_date": "2020-11-18",
            "close_approach_date_full": "2020-Nov-18 19:59",
            "epoch_date_close_approach": 1605729540000,
            "relative_velocity": {
                "kilometers_per_second": "10.2000371999",
                "kilometers_per_hour": "36720.133919491",
                "miles_per_hour": "22816.4632123637"
            },
            "miss_distance": {
                "astronomical": "0.1220396593",
                "lunar": "47.4734274677",
                "kilometers": "18256873.086805691",
                "miles": "11344294.8941968958"
            },
            "orbiting_body": "Earth"
        }
    ],
    "orbital_data": {
        "orbit_id": "17",
        "orbit_determination_date": "2020-12-08 05:23:58",
        "first_observation_date": "2020-11-10",
        "last_observation_date": "2020-12-07",
        "data_arc_in_days": 27,
        "observations_used": 93,
        "orbit_uncertainty": "7",
        "minimum_orbit_intersection": ".0384032",
        "jupiter_tisserand_invariant": "3.192",
        "epoch_osculation": "2459000.5",
        "eccentricity": ".5889391990324548",
        "semi_major_axis": "2.511369728443846",
        "inclination": "4.050428826133185",
        "ascending_node_longitude": "211.7620928593615",
        "orbital_period": "1453.665252437818",
        "perihelion_distance": "1.032325652099774",
        "perihelion_argument": "180.3441558433352",
        "aphelion_distance": "3.990413804787918",
        "perihelion_time": "2459156.105724655309",
        "mean_anomaly": "321.4642636728311",
        "mean_motion": ".2476498625775602",
        "equinox": "J2000",
        "orbit_class": {
            "orbit_class_type": "AMO",
            "orbit_class_description": "Near-Earth asteroid orbits similar to that of 1221 Amor",
            "orbit_class_range": "1.017 AU < q (perihelion) < 1.3 AU"
        }
    },
    "is_sentry_object": false
}